[{"OBJECT_NAME":"GAOFEN-3 03","OBJECT_ID":"2022-035A","EPOCH":"2026-03-10T00:27:29.452896","MEAN_MOTION":14.42227519,"ECCENTRICITY":0.00014785,"INCLINATION":98.411,"RA_OF_ASC_NODE":79.0226,"ARG_OF_PERICENTER":98.2358,"MEAN_ANOMALY":261.8999,"EPHEMERIS_TYPE":0,"CLASSIFICATION_TYPE":"U","NORAD_CAT_ID":52200,"ELEMENT_SET_NO":999,"REV_AT_EPOCH":20655,"BSTAR":-2.1725867e-5,"MEAN_MOTION_DOT":-1.15e-6,"MEAN_MOTION_DDOT":0},{"OBJECT_NAME":"SL-8 R\/B","OBJECT_ID":"1982-001B","EPOCH":"2026-03-09T22:02:04.151904","MEAN_MOTION":14.39875272,"ECCENTRICITY":0.00201713,"INCLINATION":74.0385,"RA_OF_ASC_NODE":272.6903,"ARG_OF_PERICENTER":286.04,"MEAN_ANOMALY":73.8533,"EPHEMERIS_TYPE":0,"CLASSIFICATION_TYPE":"U","NORAD_CAT_ID":13028,"ELEMENT_SET_NO":999,"REV_AT_EPOCH":31530,"BSTAR":0.00011682733,"MEAN_MOTION_DOT":3.41e-6,"MEAN_MOTION_DDOT":0}]
